{"epoch":1784710044,"count":18256,"objects":[{"id":"20580","name":"HST","type":"PAYLOAD","l1":"1 20580U 90037B   26202.36670297  .00004372  00000-0  13390-3 0  9991","l2":"2 20580  28.4722 206.9020 0002079 163.2375 196.8290 15.31101055793811"},{"id":"23802","name":"POLAR","type":"PAYLOAD","l1":"1 23802U 96013A   26200.38703378  .00000162  00000-0  00000-0 0  9992","l2":"2 23802  79.8986 226.6697 6502663 207.9705  92.0144  1.29846046145279"},{"id":"25560","name":"SWAS","type":"PAYLOAD","l1":"1 25560U 98071A   26202.20436198  .00002267  00000-0  14653-3 0  9997","l2":"2 25560  69.8945 139.7845 0007510 223.6622 136.3948 15.09772740502401"},{"id":"25867","name":"CXO","type":"PAYLOAD","l1":"1 25867U 99040B   26203.75757577  .00000588  00000-0  00000-0 0  9994","l2":"2 25867  56.6521 115.7083 7776512 309.9609   0.5640  0.37802015 17459"},{"id":"25989","name":"XMM","type":"PAYLOAD","l1":"1 25989U 99066A   26201.25992622 -.00000007  00000-0  00000-0 0  9999","l2":"2 25989  64.3074 282.5600 4664571  64.3171   0.0365  0.50127970 23164"},{"id":"25994","name":"TERRA","type":"PAYLOAD","l1":"1 25994U 99068A   26202.61954139  .00000241  00000-0  58077-4 0  9999","l2":"2 25994  97.9436 250.7972 0003622 110.2563  49.2698 14.61127057414632"},{"id":"26410","name":"CLUSTER II-FM7","type":"PAYLOAD","l1":"1 26410U 00041A   26201.60182196  .00010308 -30415-5  00000-0 0  9993","l2":"2 26410 149.8020  56.9135 9091714 274.4939 359.4480  0.44850593 20460"},{"id":"26464","name":"CLUSTER II-FM8","type":"PAYLOAD","l1":"1 26464U 00045B   26202.20476271  .00010744 -27289-5  00000-0 0  9992","l2":"2 26464 149.9916  58.1960 9096215 275.6329   2.0911  0.44427498 20465"},{"id":"26702","name":"ODIN","type":"PAYLOAD","l1":"1 26702U 01007A   26202.09171423  .00404603  65645-4  11550-2 0  9995","l2":"2 26702  97.3688 245.5905 0004977 159.5979 200.5496 15.93222881394768"},{"id":"26998","name":"TIMED","type":"PAYLOAD","l1":"1 26998U 01055B   26202.32969157  .00000817  00000-0  77679-4 0  9995","l2":"2 26998  74.0672 166.2696 0002369 293.6419  66.4517 14.95353320335928"},{"id":"27640","name":"CORIOLIS","type":"PAYLOAD","l1":"1 27640U 03001A   26202.30216744  .00000057  00000-0  47043-4 0  9996","l2":"2 27640  98.7138 208.6674 0015121 112.8807 247.3968 14.19952988219060"},{"id":"27651","name":"SORCE","type":"PAYLOAD","l1":"1 27651U 03004A   26202.60640042  .00001942  00000-0  14901-3 0  9996","l2":"2 27651  39.9918  65.2758 0018658 297.4393  62.4504 15.03864546277087"},{"id":"27843","name":"MOST","type":"PAYLOAD","l1":"1 27843U 03031D   26202.00166933  .00000031  00000-0  34028-4 0  9996","l2":"2 27843  98.7055 209.2568 0010421 149.0494 211.1300 14.21328536195515"},{"id":"27858","name":"SCISAT 1","type":"PAYLOAD","l1":"1 27858U 03036A   26202.19261917  .00000395  00000-0  55026-4 0  9999","l2":"2 27858  73.9301 103.7789 0007053 170.3636 189.7677 14.81483396236486"},{"id":"28485","name":"SWIFT","type":"PAYLOAD","l1":"1 28485U 04047A   26202.43279528  .00050543  00000-0  36481-3 0  9996","l2":"2 28485  20.5518 280.0692 0002705  92.0040 268.0717 15.71674184192250"},{"id":"29479","name":"HINODE (SOLAR B)","type":"PAYLOAD","l1":"1 29479U 06041A   26202.52336412  .00000452  00000-0  85968-4 0  9991","l2":"2 29479  98.0548 218.1700 0017577 174.2351 185.9060 14.68663632 59914"},{"id":"29505","name":"SHIJIAN 6 02A (SJ-6 02A)","type":"PAYLOAD","l1":"1 29505U 06046A   26202.58638936  .00005222  00000-0  26551-3 0  9990","l2":"2 29505  97.6347 243.9157 0003827  49.0531 311.1033 15.17291283 77489"},{"id":"29506","name":"SHIJIAN 6 02B (SJ-6 02B)","type":"PAYLOAD","l1":"1 29506U 06046B   26202.60200124  .00000595  00000-0  50744-4 0  9998","l2":"2 29506  97.7142 231.4470 0012614 313.1596  46.8573 15.01444184 75903"},{"id":"33053","name":"GLAST","type":"PAYLOAD","l1":"1 33053U 08029A   26202.60289390  .00002435  00000-0  83904-4 0  9994","l2":"2 33053  25.5828 325.4885 0008168  16.3289 343.7512 15.24100854   941"},{"id":"36395","name":"SDO","type":"PAYLOAD","l1":"1 36395U 10005A   26202.19615476 -.00000097  00000-0  00000-0 0  9990","l2":"2 36395  34.7200  85.8242 0001647  43.2128 138.3850  1.00277625 60409"},{"id":"36508","name":"CRYOSAT 2","type":"PAYLOAD","l1":"1 36508U 10013A   26202.61052161  .00000055  00000-0  12913-4 0  9991","l2":"2 36508  92.0354 285.6701 0002485  98.8557 261.2932 14.51899618863078"},{"id":"37389","name":"XSAT","type":"PAYLOAD","l1":"1 37389U 11015C   26202.62605450  .00000126  00000-0  71162-4 0  9998","l2":"2 37389  98.3539 178.0133 0012798 239.9608 120.0303 14.25214886792587"},{"id":"38337","name":"GCOM W1","type":"PAYLOAD","l1":"1 38337U 12025A   26202.59477221  .00000304  00000-0  77571-4 0  9991","l2":"2 38337  98.2024 142.6300 0001261  79.8877  93.1142 14.57093926754049"},{"id":"38358","name":"NUSTAR","type":"PAYLOAD","l1":"1 38358U 12031A   26202.66668981  .00003761  00000-0  17757-3 0  9993","l2":"2 38358   6.0259 135.4426 0009215 264.2486  77.4794 15.09081336  1303"},{"id":"39089","name":"NEOSSAT","type":"PAYLOAD","l1":"1 39089U 13009D   26202.49516665  .00000096  00000-0  47989-4 0  9992","l2":"2 39089  98.4195  21.7149 0011791 139.5456 220.6609 14.35837095701663"},{"id":"39091","name":"BRITE-A TUGSAT-1","type":"PAYLOAD","l1":"1 39091U 13009F   26202.47670541  .00000112  00000-0  52572-4 0  9990","l2":"2 39091  98.4014  21.0669 0011080 133.3553 226.8559 14.36554203701971"},{"id":"39197","name":"IRIS","type":"PAYLOAD","l1":"1 39197U 13033A   26202.50812964  .00000739  00000-0  90738-4 0  9996","l2":"2 39197  97.9318  41.6768 0023764 203.5958 156.4169 14.85945555705470"},{"id":"39253","name":"SPRINT A","type":"PAYLOAD","l1":"1 39253U 13049A   26202.59599997  .00000090  00000-0  33273-4 0  9994","l2":"2 39253  29.7218  45.0713 0136957 295.7415  62.9078 13.55547082636093"},{"id":"39265","name":"CASSIOPE","type":"PAYLOAD","l1":"1 39265U 13055A   26202.57169548  .00019864 -48157-6  21294-3 0  9997","l2":"2 39265  80.9141  24.8665 0281790 306.2185  51.3290 15.27633998672911"},{"id":"39422","name":"STSAT 3","type":"PAYLOAD","l1":"1 39422U 13066G   26202.60238957  .00002296  00000-0  17543-3 0  9990","l2":"2 39422  97.6216 171.9353 0008754 279.4820  80.5416 15.02912730689375"}]}